{
    "links": {
        "self": "http://www.neowsapp.com/rest/v1/neo/3909263?api_key=iIulBulltgU6a56xZRHN4H3l9WmuAYTsLGpBGhQ2"
    },
    "id": "3909263",
    "neo_reference_id": "3909263",
    "name": "(2019 XQ2)",
    "designation": "2019 XQ2",
    "nasa_jpl_url": "http://ssd.jpl.nasa.gov/sbdb.cgi?sstr=3909263",
    "absolute_magnitude_h": 24.9,
    "estimated_diameter": {
        "kilometers": {
            "estimated_diameter_min": 0.0278326768,
            "estimated_diameter_max": 0.0622357573
        },
        "meters": {
            "estimated_diameter_min": 27.8326768072,
            "estimated_diameter_max": 62.2357573367
        },
        "miles": {
            "estimated_diameter_min": 0.0172944182,
            "estimated_diameter_max": 0.0386714948
        },
        "feet": {
            "estimated_diameter_min": 91.3145593761,
            "estimated_diameter_max": 204.1855621004
        }
    },
    "is_potentially_hazardous_asteroid": false,
    "close_approach_data": [
        {
            "close_approach_date": "1947-09-06",
            "close_approach_date_full": "1947-Sep-06 19:00",
            "epoch_date_close_approach": -704350800000,
            "relative_velocity": {
                "kilometers_per_second": "18.4345501978",
                "kilometers_per_hour": "66364.3807121459",
                "miles_per_hour": "41236.2453374998"
            },
            "miss_distance": {
                "astronomical": "0.2854440848",
                "lunar": "111.0377489872",
                "kilometers": "42701827.090179376",
                "miles": "26533684.9705163488"
            },
            "orbiting_body": "Earth"
        },
        {
            "close_approach_date": "1948-01-30",
            "close_approach_date_full": "1948-Jan-30 01:49",
            "epoch_date_close_approach": -691798260000,
            "relative_velocity": {
                "kilometers_per_second": "14.0502880178",
                "kilometers_per_hour": "50581.0368640357",
                "miles_per_hour": "31429.0892669893"
            },
            "miss_distance": {
                "astronomical": "0.0732687827",
                "lunar": "28.5015564703",
                "kilometers": "10960853.829412849",
                "miles": "6810758.7505173562"
            },
            "orbiting_body": "Mars"
        },
        {
            "close_approach_date": "2017-12-18",
            "close_approach_date_full": "2017-Dec-18 03:34",
            "epoch_date_close_approach": 1513568040000,
            "relative_velocity": {
                "kilometers_per_second": "3.2847991876",
                "kilometers_per_hour": "11825.2770753091",
                "miles_per_hour": "7347.7673027108"
            },
            "miss_distance": {
                "astronomical": "1.6256287861",
                "lunar": "632.3695977929",
                "kilometers": "243190603.811245607",
                "miles": "151111634.0687270966"
            },
            "orbiting_body": "Juptr"
        },
        {
            "close_approach_date": "2019-11-26",
            "close_approach_date_full": "2019-Nov-26 11:29",
            "epoch_date_close_approach": 1574767740000,
            "relative_velocity": {
                "kilometers_per_second": "9.3487909067",
                "kilometers_per_hour": "33655.6472639439",
                "miles_per_hour": "20912.3103790878"
            },
            "miss_distance": {
                "astronomical": "0.0148699936",
                "lunar": "5.7844275104",
                "kilometers": "2224519.369473632",
                "miles": "1382252.2403028416"
            },
            "orbiting_body": "Earth"
        }
    ],
    "orbital_data": {
        "orbit_id": "7",
        "orbit_determination_date": "2020-01-08 06:22:38",
        "first_observation_date": "2019-12-06",
        "last_observation_date": "2020-01-06",
        "data_arc_in_days": 31,
        "observations_used": 57,
        "orbit_uncertainty": "7",
        "minimum_orbit_intersection": ".013223",
        "jupiter_tisserand_invariant": "3.227",
        "epoch_osculation": "2459000.5",
        "eccentricity": ".6024307957886593",
        "semi_major_axis": "2.431310915527382",
        "inclination": "4.915624283505969",
        "ascending_node_longitude": "73.39825781651092",
        "orbital_period": "1384.71110995063",
        "perihelion_distance": ".9666143458765674",
        "perihelion_argument": "330.6257585806953",
        "aphelion_distance": "3.896007485178196",
        "perihelion_time": "2458798.624970329420",
        "mean_anomaly": "52.48387924323062",
        "mean_motion": ".2599820261518919",
        "equinox": "J2000",
        "orbit_class": {
            "orbit_class_type": "APO",
            "orbit_class_description": "Near-Earth asteroid orbits which cross the Earth’s orbit similar to that of 1862 Apollo",
            "orbit_class_range": "a (semi-major axis) > 1.0 AU; q (perihelion) < 1.017 AU"
        }
    },
    "is_sentry_object": false
}